NORAD_CAT_ID,OBJECT_NAME,OBJECT_TYPE,EPOCH,MEAN_MOTION,ECCENTRICITY,INCLINATION,RA_OF_ASC_NODE,ARG_OF_PERICENTER,MEAN_ANOMALY,BSTAR,MEAN_MOTION_DOT,MEAN_MOTION_DDOT,TLE_LINE0,TLE_LINE1,TLE_LINE2,SEMIMAJOR_AXIS,PERIOD,APOGEE,PERIGEE,DECAYED
56773.0,STARLINK-6296,PAYLOAD,2024-01-01 14:29:07,15.69902246,0.0003019,69.9969,167.8986,262.7648,97.3204,4.8006e-05,5.558e-05,0.0,0 STARLINK-6296,1 56773U 23078G   24001.60356187  .00005558  00000-0  48006-4 0  9996,2 56773  69.9969 167.8986 0003019 262.7648  97.3204 15.69902246 33848,6737.314,91.725,361.213,357.145,0.0
56773.0,STARLINK-6296,PAYLOAD,2024-01-01 19:04:23,15.69908667,0.0003492,69.9987,167.3633,267.1512,92.9284,9.5981e-07,-9.7e-07,0.0,0 STARLINK-6296,1 56773U 23078G   24001.79471881 -.00000097  00000-0  95981-6 0  9995,2 56773  69.9987 167.3633 0003492 267.1512  92.9284 15.69908667 34131,6737.295,91.725,361.513,356.808,0.0
56773.0,STARLINK-6296,PAYLOAD,2024-01-01 20:36:08,15.69911798,0.0003219,69.9986,167.1835,254.7083,105.3757,6.0565e-06,5.15e-06,0.0,0 STARLINK-6296,1 56773U 23078G   24001.85843275  .00000515  00000-0  60565-5 0  9995,2 56773  69.9986 167.1835 0003219 254.7083 105.3757 15.69911798 33888,6737.286,91.725,361.32,356.983,0.0
56773.0,STARLINK-6296,PAYLOAD,2024-01-02 11:53:38,15.6993435,0.0003129,69.9972,165.3887,266.6952,93.3886,1.4248e-05,1.501e-05,0.0,0 STARLINK-6296,1 56773U 23078G   24002.49558537  .00001501  00000-0  14248-4 0  9992,2 56773  69.9972 165.3887 0003129 266.6952  93.3886 15.69934350 34246,6737.222,91.724,361.195,356.979,0.0
56773.0,STARLINK-6296,PAYLOAD,2024-01-02 13:25:24,15.69919295,0.0003389,69.9981,165.2146,269.5699,90.5108,3.4833e-07,-1.71e-06,0.0,0 STARLINK-6296,1 56773U 23078G   24002.55931256 -.00000171  00000-0  34833-6 0  9999,2 56773  69.9981 165.2146 0003389 269.5699  90.5108 15.69919295 33999,6737.265,91.724,361.413,356.847,0.0
56773.0,STARLINK-6296,PAYLOAD,2024-01-02 19:32:25,15.69919074,0.0003853,69.9972,164.4976,277.3154,82.7604,3.406e-06,1.96e-06,0.0,0 STARLINK-6296,1 56773U 23078G   24002.81418037  .00000196  00000-0  34060-5 0  9992,2 56773  69.9972 164.4976 0003853 277.3154  82.7604 15.69919074 34293,6737.266,91.724,361.726,356.535,0.0
56773.0,STARLINK-6296,PAYLOAD,2024-01-03 12:21:40,15.6994429,0.0003486,69.9969,162.5277,264.5786,95.5012,-2.9088e-05,-3.712e-05,0.0,0 STARLINK-6296,1 56773U 23078G   24003.51505686 -.00003712  00000-0 -29088-4 0  9999,2 56773  69.9969 162.5277 0003486 264.5786  95.5012 15.69944290 34409,6737.193,91.723,361.407,356.71,0.0
56773.0,STARLINK-6296,PAYLOAD,2024-01-03 13:53:26,15.69924857,0.0003326,69.9975,162.3486,262.7387,97.3431,7.2198e-06,6.55e-06,0.0,0 STARLINK-6296,1 56773U 23078G   24003.57877563  .00000655  00000-0  72198-5 0  9993,2 56773  69.9975 162.3486 0003326 262.7387  97.3431 15.69924857 34150,6737.249,91.724,361.355,356.873,0.0
56773.0,STARLINK-6296,PAYLOAD,2024-01-03 20:00:25,15.69930915,0.000319,69.9987,161.6335,260.5872,99.4963,3.3577e-05,3.828e-05,0.0,0 STARLINK-6296,1 56773U 23078G   24003.83363334  .00003828  00000-0  33577-4 0  9990,2 56773  69.9987 161.6335 0003190 260.5872  99.4963 15.69930915 34191,6737.232,91.724,361.246,356.947,0.0
56773.0,STARLINK-6296,PAYLOAD,2024-01-04 11:17:58,15.69924571,0.0002736,70.0014,159.8415,256.8307,103.2583,-1.021e-06,-3.35e-06,0.0,0 STARLINK-6296,1 56773U 23078G   24004.47081179 -.00000335  00000-0 -10210-5 0  9997,2 56773  70.0014 159.8415 0002736 256.8307 103.2583 15.69924571 34552,6737.25,91.724,360.958,357.271,0.0
56773.0,STARLINK-6296,PAYLOAD,2024-01-04 12:49:43,15.69918295,0.0002949,69.9994,159.6631,254.952,105.1349,4.6826e-06,3.5e-06,0.0,0 STARLINK-6296,1 56773U 23078G   24004.53453035  .00000350  00000-0  46826-5 0  9995,2 56773  69.9994 159.6631 0002949 254.9520 105.1349 15.69918295 34306,6737.268,91.725,361.12,357.146,0.0
56773.0,STARLINK-6296,PAYLOAD,2024-01-04 20:28:29,15.69914312,0.000344,69.9978,158.7657,263.4382,96.6422,8.767e-06,8.41e-06,0.0,0 STARLINK-6296,1 56773U 23078G   24004.85311758  .00000841  00000-0  87670-5 0  9992,2 56773  69.9978 158.7657 0003440 263.4382  96.6422 15.69914312 34610,6737.279,91.725,361.462,356.827,0.0
56773.0,STARLINK-6296,PAYLOAD,2024-01-05 11:45:59,15.69934179,0.0003958,69.9973,156.9726,275.5098,84.5646,2.2174e-06,5.4e-07,0.0,0 STARLINK-6296,1 56773U 23078G   24005.49027499  .00000054  00000-0  22174-5 0  9993,2 56773  69.9973 156.9726 0003958 275.5098  84.5646 15.69934179 34712,6737.222,91.724,361.754,356.421,0.0
56773.0,STARLINK-6296,PAYLOAD,2024-01-05 13:17:44,15.69933355,0.0003483,69.9967,156.7932,265.5941,94.4857,-2.1641e-06,-4.73e-06,0.0,0 STARLINK-6296,1 56773U 23078G   24005.55399240 -.00000473  00000-0 -21641-5 0  9991,2 56773  69.9967 156.7932 0003483 265.5941  94.4857 15.69933355 34462,6737.225,91.724,361.436,356.743,0.0
56773.0,STARLINK-6296,PAYLOAD,2024-01-05 19:24:45,15.6992937,0.0003899,69.997,156.0757,271.5452,88.5297,-7.5621e-07,-3.04e-06,0.0,0 STARLINK-6296,1 56773U 23078G   24005.80886037 -.00000304  00000-0 -75621-6 0  9995,2 56773  69.9970 156.0757 0003899 271.5452  88.5297 15.69929370 34508,6737.236,91.724,361.728,356.474,0.0
56773.0,STARLINK-6296,PAYLOAD,2024-01-06 12:14:02,15.69923617,0.0003267,69.997,154.1077,267.8771,92.205,9.2659e-06,9.01e-06,0.0,0 STARLINK-6296,1 56773U 23078G   24006.50974768  .00000901  00000-0  92659-5 0  9992,2 56773  69.9970 154.1077 0003267 267.8771  92.2050 15.69923617 34870,6737.253,91.724,361.319,356.916,0.0
56773.0,STARLINK-6296,PAYLOAD,2024-01-06 19:52:47,15.69926425,0.0003241,69.9989,153.2143,262.5102,97.5725,-3.6856e-07,-2.57e-06,0.0,0 STARLINK-6296,1 56773U 23078G   24006.82833100 -.00000257  00000-0 -36856-6 0  9995,2 56773  69.9989 153.2143 0003241 262.5102  97.5725 15.69926425 34660,6737.244,91.724,361.293,356.926,0.0
56773.0,STARLINK-6296,PAYLOAD,2024-01-07 12:42:04,15.69923821,0.0003047,69.9996,151.2436,269.4018,90.6829,2.1926e-05,2.424e-05,0.0,0 STARLINK-6296,1 56773U 23078G   24007.52921491  .00002424  00000-0  21926-4 0  9990,2 56773  69.9996 151.2436 0003047 269.4018  90.6829 15.69923821 34775,6737.252,91.724,361.17,357.064,0.0
56773.0,STARLINK-6296,PAYLOAD,2024-01-07 18:49:04,15.69923101,0.0003233,69.9986,150.5245,272.2834,87.7991,1.6294e-05,1.747e-05,0.0,0 STARLINK-6296,1 56773U 23078G   24007.78408327  .00001747  00000-0  16294-4 0  9995,2 56773  69.9986 150.5245 0003233 272.2834  87.7991 15.69923101 35071,6737.254,91.724,361.297,356.941,0.0
56773.0,STARLINK-6296,PAYLOAD,2024-01-08 11:38:21,15.69931349,0.0002641,69.9995,148.5531,266.7265,93.3628,-3.5458e-07,-2.55e-06,0.0,0 STARLINK-6296,1 56773U 23078G   24008.48496541 -.00000255  00000-0 -35458-6 0  9998,2 56773  69.9995 148.5531 0002641 266.7265  93.3628 15.69931349 34920,6737.23,91.724,360.875,357.316,0.0
56773.0,STARLINK-6296,PAYLOAD,2024-01-08 19:17:06,15.69931149,0.000267,69.9992,147.6567,270.5155,89.5735,-1.912e-06,-4.42e-06,0.0,0 STARLINK-6296,1 56773U 23078G   24008.80354825 -.00000442  00000-0 -19120-5 0  9997,2 56773  69.9992 147.6567 0002670 270.5155  89.5735 15.69931149 35238,6737.231,91.724,360.895,357.297,0.0
56773.0,STARLINK-6296,PAYLOAD,2024-01-09 12:06:24,15.69906641,0.0002929,69.9989,145.6843,273.8245,86.2615,-1.177e-05,-1.626e-05,0.0,0 STARLINK-6296,1 56773U 23078G   24009.50444764 -.00001626  00000-0 -11770-4 0  9994,2 56773  69.9989 145.6843 0002929 273.8245  86.2615 15.69906641 35344,6737.301,91.725,361.139,357.193,0.0
56773.0,STARLINK-6296,PAYLOAD,2024-01-09 18:13:24,15.69914741,0.0003181,69.999,144.9685,273.0589,87.0243,-2.3649e-06,-4.97e-06,0.0,0 STARLINK-6296,1 56773U 23078G   24009.75930946 -.00000497  00000-0 -23649-5 0  9997,2 56773  69.9990 144.9685 0003181 273.0589  87.0243 15.69914741 35386,6737.278,91.725,361.286,357.0,0.0
56773.0,STARLINK-6296,PAYLOAD,2024-01-10 11:02:40,15.69920433,0.0003919,69.9993,142.9974,277.6785,82.3966,-5.8135e-06,-9.12e-06,0.0,0 STARLINK-6296,1 56773U 23078G   24010.46018674 -.00000912  00000-0 -58135-5 0  9992,2 56773  69.9993 142.9974 0003919 277.6785  82.3966 15.69920433 35492,6737.262,91.724,361.767,356.486,0.0
56773.0,STARLINK-6296,PAYLOAD,2024-01-10 18:41:25,15.69932593,0.0003498,69.9996,142.1062,262.7626,97.3172,7.4069e-06,6.78e-06,0.0,0 STARLINK-6296,1 56773U 23078G   24010.77876398  .00000678  00000-0  74069-5 0  9992,2 56773  69.9996 142.1062 0003498 262.7626  97.3172 15.69932593 35547,6737.227,91.724,361.449,356.735,0.0
56773.0,STARLINK-6296,PAYLOAD,2024-01-11 11:30:41,15.69929567,0.0003618,69.9991,140.1348,278.8848,81.1938,-2.1448e-05,-2.792e-05,0.0,0 STARLINK-6296,1 56773U 23078G   24011.47965014 -.00002792  00000-0 -21448-4 0  9997,2 56773  69.9991 140.1348 0003618 278.8848  81.1938 15.69929567 35655,6737.236,91.724,361.538,356.663,0.0
56773.0,STARLINK-6296,PAYLOAD,2024-01-11 17:37:42,15.69926529,0.0003242,69.9993,139.4182,272.2797,87.8028,-8.9537e-06,-1.289e-05,0.0,0 STARLINK-6296,1 56773U 23078G   24011.73451804 -.00001289  00000-0 -89537-5 0  9997,2 56773  69.9993 139.4182 0003242 272.2797  87.8028 15.69926529 35432,6737.244,91.724,361.293,356.925,0.0
56773.0,STARLINK-6296,PAYLOAD,2024-01-12 10:26:58,15.69926188,0.0002994,70.0002,137.4467,270.0056,90.0796,2.6824e-05,3.014e-05,0.0,0 STARLINK-6296,1 56773U 23078G   24012.43540391  .00003014  00000-0  26824-4 0  9990,2 56773  70.0002 137.4467 0002994 270.0056  90.0796 15.69926188 35548,6737.245,91.724,361.127,357.093,0.0
56773.0,STARLINK-6296,PAYLOAD,2024-01-12 18:05:44,15.69934111,0.000246,70.0025,136.554,265.4111,94.6803,3.7622e-05,4.315e-05,0.0,0 STARLINK-6296,1 56773U 23078G   24012.75398498  .00004315  00000-0  37622-4 0  9997,2 56773  70.0025 136.5540 0002460 265.4111  94.6803 15.69934111 35851,6737.223,91.724,360.745,357.43,0.0
56773.0,STARLINK-6296,PAYLOAD,2024-01-13 10:54:59,15.69950603,0.0003158,70.0015,134.583,282.3145,77.7697,7.8734e-05,9.275e-05,0.0,0 STARLINK-6296,1 56773U 23078G   24013.45485638  .00009275  00000-0  78734-4 0  9997,2 56773  70.0015 134.5830 0003158 282.3145  77.7697 15.69950603 35969,6737.175,91.723,361.168,356.913,0.0
